PROBA-1                 
1 26958U 01049B   26165.48158779  .00003064  00000+0  19933-3 0  9993
2 26958  97.9599 173.9194 0056205 130.8207 229.7913 15.07489606343215
CUTE-1 (CO-55)          
1 27844U 03031E   26165.50824594  .00000252  00000+0  12810-3 0  9992
2 27844  98.6736 174.1008 0009351 185.7557 174.3516 14.24334231191299
CUBESAT XI-IV (CO-57)   
1 27848U 03031J   26165.28450992  .00000215  00000+0  11362-3 0  9998
2 27848  98.6766 173.5948 0008829 205.9293 154.1445 14.23619426190964
APRIZESAT 4             
1 35684U 09041D   26165.49234727  .00000561  00000+0  73582-4 0  9998
2 35684  98.1413 240.7591 0042570 331.9738  27.9183 14.83876102910969
APRIZESAT 3             
1 35686U 09041F   26165.42396589  .00001464  00000+0  13053-3 0  9997
2 35686  98.2055 318.5155 0062750  76.6419 284.1786 14.96233173915965
PROBA-2                 
1 36037U 09059B   26165.48945037  .00000168  00000+0  49575-4 0  9990
2 36037  98.2449 348.8796 0012023 291.3021  68.6892 14.54861414881136
APRIZESAT 5             
1 37792U 11044E   26165.37244007  .00001020  00000+0  13587-3 0  9994
2 37792  98.2455  98.3330 0052573  13.3490 346.9098 14.81070534798377
APRIZESAT 6             
1 37793U 11044F   26165.38029287  .00000680  00000+0  10306-3 0  9994
2 37793  98.2367  75.8226 0044486  94.7408  26.1147 14.76912058796730
PROBA-V                 
1 39159U 13021A   26165.51861897  .00000056  00000+0  42453-4 0  9991
2 39159  98.3582 144.2569 0005035 129.6693 230.4931 14.23596478680739
APRIZESAT 7             
1 39416U 13066A   26165.40345294  .00001001  00000+0  10445-3 0  9998
2 39416  97.7709 118.6634 0034780 218.6665 141.2063 14.91558557680819
APRIZESAT 8             
1 39425U 13066K   26165.38373639  .00000877  00000+0  10091-3 0  9996
2 39425  97.8221 112.8907 0044508 296.1026  63.5613 14.87648054679259
BUGSAT-1 (TITA)         
1 40014U 14033E   26165.52734899  .00006183  00000+0  32675-3 0  9990
2 40014  98.0432 257.9197 0027767 187.6733 172.4077 15.15562455655431
SAUDISAT 4              
1 40016U 14033G   26165.41367102  .00000620  00000+0  88182-4 0  9994
2 40016  97.7579 311.6443 0046219  82.7448 277.9015 14.79541441645662
APRIZESAT 9             
1 40018U 14033J   26165.35687851  .00000603  00000+0  96002-4 0  9996
2 40018  97.9057 298.6247 0065480 208.3420 151.4221 14.74211011643148
APRIZESAT 10            
1 40019U 14033K   26165.33752832  .00000369  00000+0  65966-4 0  9991
2 40019  97.9645 292.3606 0077430 283.1100  76.1473 14.70880192641830
TECHDEMOSAT-1 (TDS-1)   
1 40076U 14037H   26165.51360406  .00007437  00000+0  42236-3 0  9997
2 40076  98.3810 157.4616 0004509 278.2522  81.8195 15.13258771647823
TECHNOSAT               
1 42829U 17042E   26165.39023323  .00003894  00000+0  27794-3 0  9999
2 42829  97.4271 323.1544 0018807 102.9846 257.3482 15.04942761486281
FLYING LAPTOP           
1 42831U 17042G   26165.51920319  .00003361  00000+0  26585-3 0  9993
2 42831  97.4668 321.1545 0019518 130.4890 229.8040 15.01130916486055
HAWK-A                  
1 43765U 18099H   26165.39468374  .00006036  00000+0  24390-3 0  9991
2 43765  97.3917 217.6667 0033189 296.2657  63.5171 15.24614455412679
HAWK-B                  
1 43794U 18099AN  26165.41289830  .00005912  00000+0  25275-3 0  9999
2 43794  97.3966 217.1056 0030647 315.1493  44.7267 15.22799316412616
HAWK-C                  
1 43799U 18099AT  26165.11560373  .00007746  00000+0  27953-3 0  9997
2 43799  97.3896 218.2883 0038857 297.1702  62.5578 15.28065252413442
SALSAT                  
1 46495U 20068K   26165.46369228  .00007647  00000+0  26787-3 0  9990
2 46495  97.8844 168.3625 0008244 319.7381  40.3247 15.29766434314949
HAWK-2C                 
1 47502U 21006CT  26165.08768379  .00006826  00000+0  20564-3 0  9996
2 47502  97.2280 209.4591 0006338 196.7406 163.3629 15.34630308299026
HAWK-2A                 
1 47505U 21006CW  26165.09020655  .00006772  00000+0  20395-3 0  9990
2 47505  97.2324 210.1377 0005748 200.0133 160.0886 15.34645114299029
HAWK-2B                 
1 47508U 21006CZ  26165.08591556  .00007637  00000+0  22904-3 0  9994
2 47508  97.2193 208.4700 0006336 198.1903 161.9115 15.34728701299021
HAWK-3B                 
1 48931U 21059BE  26165.51889976  .00042363  00000+0  36228-3 0  9996
2 48931  97.6651   1.9752 0003410 345.6510  14.4653 15.69359053277439
HAWK-3C                 
1 48948U 21059BX  26165.51857841  .00040339  00000+0  34506-3 0  9998
2 48948  97.6777   7.6565 0003712 345.9096  14.2061 15.69360644277437
HAWK-3A                 
1 48957U 21059CG  26165.51846593  .00041166  00000+0  35200-3 0  9991
2 48957  97.6716   4.8635 0003825 348.3770  11.7402 15.69365612277439
HAWK-5C                 
1 52754U 22057Y   26165.39952711  .00018185  00000+0  31116-3 0  9993
2 52754  97.6588 324.8867 0005192  91.4215 268.7631 15.51305876225918
HAWK-5B                 
1 52756U 22057AA  26165.39937782  .00018441  00000+0  31546-3 0  9998
2 52756  97.6596 323.2356 0005845  84.3192 275.8726 15.51306746225916
HAWK-5A                 
1 52757U 22057AB  26165.39916569  .00018478  00000+0  31612-3 0  9993
2 52757  97.6594 324.0669 0005773  87.3880 272.8032 15.51304227225917
